NORAD_CAT_ID,OBJECT_NAME,OBJECT_TYPE,EPOCH,MEAN_MOTION,ECCENTRICITY,INCLINATION,RA_OF_ASC_NODE,ARG_OF_PERICENTER,MEAN_ANOMALY,BSTAR,MEAN_MOTION_DOT,MEAN_MOTION_DDOT,TLE_LINE0,TLE_LINE1,TLE_LINE2,SEMIMAJOR_AXIS,PERIOD,APOGEE,PERIGEE,DECAYED
53264.0,STARLINK-3950,PAYLOAD,2023-11-05 15:30:11,15.08857896,0.0001403,53.2169,72.5605,105.2983,254.8164,0.00036595,5.544e-05,0.0,0 STARLINK-3950,1 53264U 22086Y   23309.64596834  .00005544  00000-0  36595-3 0  9999,2 53264  53.2169  72.5605 0001403 105.2983 254.8164 15.08857896 71802,6917.826,95.436,540.661,538.72,0.0
53264.0,STARLINK-3950,PAYLOAD,2023-11-06 01:02:31,15.08841197,0.0001663,53.2169,70.7782,72.4506,287.6667,6.6725e-05,7.74e-06,0.0,0 STARLINK-3950,1 53264U 22086Y   23310.04341799  .00000774  00000-0  66725-4 0  9992,2 53264  53.2169  70.7782 0001663  72.4506 287.6667 15.08841197 71867,6917.877,95.437,540.892,538.591,0.0
53264.0,STARLINK-3950,PAYLOAD,2023-11-06 12:10:14,15.08816595,0.0001156,53.2175,68.6959,76.8032,283.3089,-0.00035999,-6.009e-05,0.0,0 STARLINK-3950,1 53264U 22086Y   23310.50710876 -.00006009  00000-0 -35999-3 0  9996,2 53264  53.2175  68.6959 0001156  76.8032 283.3089 15.08816595 71938,6917.952,95.439,540.617,539.017,0.0
53264.0,STARLINK-3950,PAYLOAD,2023-11-06 13:45:37,15.08827529,0.0001314,53.2165,68.3996,73.569,286.5447,-0.00015316,-2.724e-05,0.0,0 STARLINK-3950,1 53264U 22086Y   23310.57334584 -.00002724  00000-0 -15316-3 0  9992,2 53264  53.2165  68.3996 0001314  73.5690 286.5447 15.08827529 72129,6917.919,95.438,540.693,538.874,0.0
53264.0,STARLINK-3950,PAYLOAD,2023-11-06 15:21:00,15.08828349,0.0001342,53.2165,68.1022,71.4087,288.7051,-0.00012271,-2.24e-05,0.0,0 STARLINK-3950,1 53264U 22086Y   23310.63958607 -.00002240  00000-0 -12271-3 0  9997,2 53264  53.2165  68.1022 0001342  71.4087 288.7051 15.08828349 71951,6917.916,95.438,540.709,538.853,0.0
53264.0,STARLINK-3950,PAYLOAD,2023-11-07 12:01:02,15.08822356,0.0001619,53.2184,64.2387,83.9623,276.1554,-8.1667e-05,-1.587e-05,0.0,0 STARLINK-3950,1 53264U 22086Y   23311.50072228 -.00001587  00000-0 -81667-4 0  9999,2 53264  53.2184  64.2387 0001619  83.9623 276.1554 15.08822356 72080,6917.934,95.439,540.919,538.679,0.0
53264.0,STARLINK-3950,PAYLOAD,2023-11-07 13:36:25,15.08823235,0.0001483,53.2183,63.9415,80.2821,279.8338,-0.00011018,-2.04e-05,0.0,0 STARLINK-3950,1 53264U 22086Y   23311.56696227 -.00002040  00000-0 -11018-3 0  9993,2 53264  53.2183  63.9415 0001483  80.2821 279.8338 15.08823235 72274,6917.932,95.439,540.823,538.771,0.0
53264.0,STARLINK-3950,PAYLOAD,2023-11-08 00:44:07,15.08836092,0.0001462,53.2192,61.8603,87.8841,272.2319,0.00010764,1.425e-05,0.0,0 STARLINK-3950,1 53264U 22086Y   23312.03064001  .00001425  00000-0  10764-3 0  9996,2 53264  53.2192  61.8603 0001462  87.8841 272.2319 15.08836092 72161,6917.892,95.438,540.769,538.746,0.0
53264.0,STARLINK-3950,PAYLOAD,2023-11-08 13:27:12,15.08847907,0.0001322,53.2163,59.4806,76.1736,283.9403,0.00039826,6.057e-05,0.0,0 STARLINK-3950,1 53264U 22086Y   23312.56055778  .00006057  00000-0  39826-3 0  9991,2 53264  53.2163  59.4806 0001322  76.1736 283.9403 15.08847907 72425,6917.856,95.437,540.636,538.807,0.0
53264.0,STARLINK-3950,PAYLOAD,2023-11-08 15:02:35,15.08855807,0.0001428,53.2177,59.1795,72.5356,287.5792,0.00061904,9.582e-05,0.0,0 STARLINK-3950,1 53264U 22086Y   23312.62679616  .00009582  00000-0  61904-3 0  9999,2 53264  53.2177  59.1795 0001428  72.5356 287.5792 15.08855807 72259,6917.832,95.437,540.685,538.709,0.0
53264.0,STARLINK-3950,PAYLOAD,2023-11-09 00:34:53,15.08850592,0.0001346,53.2179,57.401,75.1277,284.9865,0.00038415,5.833e-05,0.0,0 STARLINK-3950,1 53264U 22086Y   23313.02423437  .00005833  00000-0  38415-3 0  9998,2 53264  53.2179  57.4010 0001346  75.1277 284.9865 15.08850592 72317,6917.848,95.437,540.644,538.782,0.0
53264.0,STARLINK-3950,PAYLOAD,2023-11-09 11:42:35,15.08846091,0.0001421,53.2185,55.3193,80.9518,279.1635,0.00024781,3.659e-05,0.0,0 STARLINK-3950,1 53264U 22086Y   23313.48791537  .00003659  00000-0  24781-3 0  9992,2 53264  53.2185  55.3193 0001421  80.9518 279.1635 15.08846091 72386,6917.862,95.437,540.71,538.744,0.0
53264.0,STARLINK-3950,PAYLOAD,2023-11-09 13:17:58,15.08845853,0.0001455,53.218,55.0223,78.5096,281.606,0.00023428,3.443e-05,0.0,0 STARLINK-3950,1 53264U 22086Y   23313.55415420  .00003443  00000-0  23428-3 0  9992,2 53264  53.2180  55.0223 0001455  78.5096 281.6060 15.08845853 72579,6917.862,95.437,540.734,538.721,0.0
53264.0,STARLINK-3950,PAYLOAD,2023-11-10 00:25:40,15.08859442,0.0001285,53.2195,52.9411,90.0158,270.0981,-3.6396e-05,-8.67e-06,0.0,0 STARLINK-3950,1 53264U 22086Y   23314.01782512 -.00000867  00000-0 -36396-4 0  9991,2 53264  53.2195  52.9411 0001285  90.0158 270.0981 15.08859442 72460,6917.821,95.436,540.575,538.797,0.0
53264.0,STARLINK-3950,PAYLOAD,2023-11-10 11:33:22,15.08840973,8.72e-05,53.22,50.8589,83.1307,276.9784,4.1192e-05,3.68e-06,0.0,0 STARLINK-3950,1 53264U 22086Y   23314.48151371  .00000368  00000-0  41192-4 0  9999,2 53264  53.2200  50.8589 0000872  83.1307 276.9784 15.08840973 72533,6917.877,95.437,540.346,539.139,0.0
53264.0,STARLINK-3950,PAYLOAD,2023-11-10 13:08:45,15.08854669,0.00016,53.2194,50.559,84.8569,275.2606,-6.6617e-05,-1.349e-05,0.0,0 STARLINK-3950,1 53264U 22086Y   23314.54774896 -.00001349  00000-0 -66617-4 0  9990,2 53264  53.2194  50.5590 0001600  84.8569 275.2606 15.08854669 72725,6917.836,95.437,540.807,538.594,0.0
53264.0,STARLINK-3950,PAYLOAD,2023-11-11 11:24:09,15.08840225,0.0001697,53.2199,46.3971,98.3402,261.7783,-3.3365e-05,-8.19e-06,0.0,0 STARLINK-3950,1 53264U 22086Y   23315.47511314 -.00000819  00000-0 -33365-4 0  9992,2 53264  53.2199  46.3971 0001697  98.3402 261.7783 15.08840225 72682,6917.88,95.438,540.919,538.571,0.0
53264.0,STARLINK-3950,PAYLOAD,2023-11-11 12:59:33,15.08837919,0.0001522,53.219,46.101,87.1201,272.9966,-4.6321e-05,-1.025e-05,0.0,0 STARLINK-3950,1 53264U 22086Y   23315.54135511 -.00001025  00000-0 -46321-4 0  9997,2 53264  53.2190  46.1010 0001522  87.1201 272.9966 15.08837919 72879,6917.887,95.438,540.805,538.699,0.0
53264.0,STARLINK-3950,PAYLOAD,2023-11-11 16:10:19,15.08840363,0.0001446,53.2184,45.5054,83.2798,276.8359,-3.7353e-05,-8.82e-06,0.0,0 STARLINK-3950,1 53264U 22086Y   23315.67383303 -.00000882  00000-0 -37353-4 0  9990,2 53264  53.2184  45.5054 0001446  83.2798 276.8359 15.08840363 72894,6917.879,95.438,540.745,538.744,0.0
53264.0,STARLINK-3950,PAYLOAD,2023-11-12 11:14:56,15.0883777,0.000155,53.2194,41.9358,92.5411,267.5758,4.0647e-05,3.59e-06,0.0,0 STARLINK-3950,1 53264U 22086Y   23316.46871364  .00000359  00000-0  40647-4 0  9994,2 53264  53.2194  41.9358 0001550  92.5411 267.5758 15.08837770 73016,6917.887,95.438,540.824,538.68,0.0
53264.0,STARLINK-3950,PAYLOAD,2023-11-12 16:01:06,15.08841777,0.0001515,53.2195,41.0431,90.5355,269.581,1.6122e-05,-3.1e-07,0.0,0 STARLINK-3950,1 53264U 22086Y   23316.66743166 -.00000031  00000-0  16122-4 0  9993,2 53264  53.2195  41.0431 0001515  90.5355 269.5810 15.08841777 72861,6917.875,95.437,540.788,538.692,0.0
53264.0,STARLINK-3950,PAYLOAD,2023-11-12 22:22:38,15.08844794,0.0001684,53.2188,39.8507,94.8086,265.3099,5.486e-05,5.85e-06,0.0,0 STARLINK-3950,1 53264U 22086Y   23316.93238746  .00000585  00000-0  54860-4 0  9990,2 53264  53.2188  39.8507 0001684  94.8086 265.3099 15.08844794 73087,6917.866,95.437,540.896,538.566,0.0
53264.0,STARLINK-3950,PAYLOAD,2023-11-13 11:05:42,15.08847388,0.0001508,53.2184,37.4746,89.1416,270.9749,0.00015228,2.137e-05,0.0,0 STARLINK-3950,1 53264U 22086Y   23317.46230303  .00002137  00000-0  15228-3 0  9999,2 53264  53.2184  37.4746 0001508  89.1416 270.9749 15.08847388 72985,6917.858,95.437,540.766,538.68,0.0
53264.0,STARLINK-3950,PAYLOAD,2023-11-13 12:41:05,15.08850476,0.0001454,53.2185,37.1787,88.0778,272.0381,0.00018408,2.644e-05,0.0,0 STARLINK-3950,1 53264U 22086Y   23317.52854000  .00002644  00000-0  18408-3 0  9998,2 53264  53.2185  37.1787 0001454  88.0778 272.0381 15.08850476 73176,6917.848,95.437,540.719,538.708,0.0
53264.0,STARLINK-3950,PAYLOAD,2023-11-13 22:13:25,15.08840563,0.0001332,53.2185,35.3946,88.4656,271.6489,8.0963e-05,1.001e-05,0.0,0 STARLINK-3950,1 53264U 22086Y   23317.92598848  .00001001  00000-0  80963-4 0  9999,2 53264  53.2185  35.3946 0001332  88.4656 271.6489 15.08840563 73234,6917.879,95.438,540.665,538.822,0.0
53264.0,STARLINK-3950,PAYLOAD,2023-11-14 10:56:31,15.08833776,0.0001802,53.2195,33.0111,84.941,275.1788,-9.102e-05,-1.736e-05,0.0,0 STARLINK-3950,1 53264U 22086Y   23318.45592101 -.00001736  00000-0 -91020-4 0  9997,2 53264  53.2195  33.0111 0001802  84.9410 275.1788 15.08833776 73133,6917.899,95.438,541.011,538.518,0.0
53264.0,STARLINK-3950,PAYLOAD,2023-11-14 14:07:17,15.08835642,0.0001826,53.2205,32.4211,89.2748,270.8453,-5.4905e-05,-1.162e-05,0.0,0 STARLINK-3950,1 53264U 22086Y   23318.58839946 -.00001162  00000-0 -54905-4 0  9996,2 53264  53.2205  32.4211 0001826  89.2748 270.8453 15.08835642 73334,6917.894,95.438,541.022,538.496,0.0
53264.0,STARLINK-3950,PAYLOAD,2023-11-14 22:04:12,15.08843708,0.0001763,53.2204,30.9329,87.7094,272.41,-6.4947e-05,-1.322e-05,0.0,0 STARLINK-3950,1 53264U 22086Y   23318.91959409 -.00001322  00000-0 -64947-4 0  9995,2 53264  53.2204  30.9329 0001763  87.7094 272.4100 15.08843708 73387,6917.869,95.437,540.954,538.514,0.0
53264.0,STARLINK-3950,PAYLOAD,2023-11-14 23:39:35,15.08839511,0.0001402,53.2177,30.6356,91.3135,268.8018,2.2982e-05,7.8e-07,0.0,0 STARLINK-3950,1 53264U 22086Y   23318.98583240  .00000078  00000-0  22982-4 0  9996,2 53264  53.2177  30.6356 0001402  91.3135 268.8018 15.08839511 73216,6917.882,95.438,540.717,538.777,0.0
53264.0,STARLINK-3950,PAYLOAD,2023-11-15 10:47:17,15.08852357,0.0001435,53.2176,28.5542,91.0162,269.0995,1.1434e-05,-1.06e-06,0.0,0 STARLINK-3950,1 53264U 22086Y   23319.44950415 -.00000106  00000-0  11434-4 0  9993,2 53264  53.2176  28.5542 0001435  91.0162 269.0995 15.08852357 73288,6917.843,95.437,540.7,538.715,0.0
